1 08820U 76039A   03022.95262749  .00000003  00000-0  10000-3 0  9205
2 08820 109.8339 131.8695 0044301 332.4279  27.4032  6.38664702367789
